{
    "links": {
        "self": "http://www.neowsapp.com/rest/v1/neo/3843373?api_key=iIulBulltgU6a56xZRHN4H3l9WmuAYTsLGpBGhQ2"
    },
    "id": "3843373",
    "neo_reference_id": "3843373",
    "name": "(2019 OP1)",
    "designation": "2019 OP1",
    "nasa_jpl_url": "http://ssd.jpl.nasa.gov/sbdb.cgi?sstr=3843373",
    "absolute_magnitude_h": 23.2,
    "estimated_diameter": {
        "kilometers": {
            "estimated_diameter_min": 0.0608912622,
            "estimated_diameter_max": 0.1361570015
        },
        "meters": {
            "estimated_diameter_min": 60.8912622106,
            "estimated_diameter_max": 136.1570015386
        },
        "miles": {
            "estimated_diameter_min": 0.0378360645,
            "estimated_diameter_max": 0.0846040122
        },
        "feet": {
            "estimated_diameter_min": 199.7744887109,
            "estimated_diameter_max": 446.7093369279
        }
    },
    "is_potentially_hazardous_asteroid": false,
    "close_approach_data": [
        {
            "close_approach_date": "2019-08-04",
            "close_approach_date_full": "2019-Aug-04 09:20",
            "epoch_date_close_approach": 1564910400000,
            "relative_velocity": {
                "kilometers_per_second": "3.6110902332",
                "kilometers_per_hour": "12999.9248394399",
                "miles_per_hour": "8077.6477425953"
            },
            "miss_distance": {
                "astronomical": "0.2463568134",
                "lunar": "95.8328004126",
                "kilometers": "36854454.544627458",
                "miles": "22900296.1531886004"
            },
            "orbiting_body": "Earth"
        }
    ],
    "orbital_data": {
        "orbit_id": "4",
        "orbit_determination_date": "2019-08-08 05:55:44",
        "first_observation_date": "2019-07-26",
        "last_observation_date": "2019-08-07",
        "data_arc_in_days": 12,
        "observations_used": 33,
        "orbit_uncertainty": "8",
        "minimum_orbit_intersection": ".244071",
        "jupiter_tisserand_invariant": "3.485",
        "epoch_osculation": "2458692.5",
        "eccentricity": ".442115166521247",
        "semi_major_axis": "2.253575755075842",
        "inclination": "4.969505219292394",
        "ascending_node_longitude": "119.8038468716758",
        "orbital_period": "1235.68185480659",
        "perihelion_distance": "1.257235734852241",
        "perihelion_argument": "195.5417398077506",
        "aphelion_distance": "3.249915775299443",
        "perihelion_time": "2458706.136330407608",
        "mean_anomaly": "356.027230692396",
        "mean_motion": ".2913371258141096",
        "equinox": "J2000",
        "orbit_class": {
            "orbit_class_type": "AMO",
            "orbit_class_description": "Near-Earth asteroid orbits similar to that of 1221 Amor",
            "orbit_class_range": "1.017 AU < q (perihelion) < 1.3 AU"
        }
    },
    "is_sentry_object": false
}